{"type": "FeatureCollection", "features": [ {"type": "Feature", "properties": {"norad_id": 66426, "name": "STARLINK-35589", "group": "last-30-days", "lat": 3.731747157598172, "lon": 97.20715560926661, "alt_km": 425.74232107344415, "timestamp": "2025-12-04T21:36:14.651485+00:00", "meta": {"OBJECT_NAME": "STARLINK-35589", "OBJECT_ID": "2025-259E", "EPOCH": "2025-12-04T14:00:01.000224", "MEAN_MOTION": 15.48063247, "ECCENTRICITY": 0.00015245, "INCLINATION": 43.0002, "RA_OF_ASC_NODE": 95.0381, "ARG_OF_PERICENTER": 284.5689, "MEAN_ANOMALY": 114.0245, "EPHEMERIS_TYPE": 0, "CLASSIFICATION_TYPE": "U", "NORAD_CAT_ID": 66426, "ELEMENT_SET_NO": 999, "REV_AT_EPOCH": 496, "BSTAR": -0.043657566, "MEAN_MOTION_DOT": -0.02081739, "MEAN_MOTION_DDOT": 0}, "tle": {"line1": "1 66426U 25259E   25338.58334491 -.02081739  00000+0 -43658-1 0  9993", "line2": "2 66426  43.0002  95.0381 0001524 284.5689 114.0245 15.48063247  4961"}}, "geometry": {"type": "Point", "coordinates": [97.20715560926661, 3.731747157598172]}}, {"type": "Feature", "properties": {"norad_id": 66427, "name": "STARLINK-35611", "group": "last-30-days", "lat": 7.405529220642628, "lon": 101.1971157003198, "alt_km": 421.6085230331628, "timestamp": "2025-12-04T21:36:14.651495+00:00", "meta": {"OBJECT_NAME": "STARLINK-35611", "OBJECT_ID": "2025-259F", "EPOCH": "2025-12-04T14:00:01.000224", "MEAN_MOTION": 15.49388645, "ECCENTRICITY": 0.00014656, "INCLINATION": 43.0003, "RA_OF_ASC_NODE": 95.0276, "ARG_OF_PERICENTER": 277.4582, "MEAN_ANOMALY": 125.0365, "EPHEMERIS_TYPE": 0, "CLASSIFICATION_TYPE": "U", "NORAD_CAT_ID": 66427, "ELEMENT_SET_NO": 999, "REV_AT_EPOCH": 496, "BSTAR": -0.041623672, "MEAN_MOTION_DOT": -0.02080418, "MEAN_MOTION_DDOT": 0}, "tle": {"line1": "1 66427U 25259F   25338.58334491 -.02080418  00000+0 -41624-1 0  9998", "line2": "2 66427  43.0003  95.0276 0001465 277.4582 125.0365 15.49388645  4961"}}, "geometry": {"type": "Point", "coordinates": [101.1971157003198, 7.405529220642628]}}, {"type": "Feature", "properties": {"norad_id": 66428, "name": "STARLINK-35610", "group": "last-30-days", "lat": 10.094688528025308, "lon": 104.18380214388979, "alt_km": 417.3196555733548, "timestamp": "2025-12-04T21:36:14.651505+00:00", "meta": {"OBJECT_NAME": "STARLINK-35610", "OBJECT_ID": "2025-259G", "EPOCH": "2025-12-04T14:00:01.000224", "MEAN_MOTION": 15.50681599, "ECCENTRICITY": 0.00015728, "INCLINATION": 43.0003, "RA_OF_ASC_NODE": 95.0216, "ARG_OF_PERICENTER": 282.9646, "MEAN_ANOMALY": 122.036, "EPHEMERIS_TYPE": 0, "CLASSIFICATION_TYPE": "U", "NORAD_CAT_ID": 66428, "ELEMENT_SET_NO": 999, "REV_AT_EPOCH": 496, "BSTAR": -0.039164855, "MEAN_MOTION_DOT": -0.02053652, "MEAN_MOTION_DDOT": 0}, "tle": {"line1": "1 66428U 25259G   25338.58334491 -.02053652  00000+0 -39165-1 0  9996", "line2": "2 66428  43.0003  95.0216 0001572 282.9646 122.0360 15.50681599  4965"}}, "geometry": {"type": "Point", "coordinates": [104.18380214388979, 10.094688528025308]}}, {"type": "Feature", "properties": {"norad_id": 66429, "name": "STARLINK-35533", "group": "last-30-days", "lat": 11.807031736137098, "lon": 106.12538286191969, "alt_km": 413.77995195982203, "timestamp": "2025-12-04T21:36:14.651515+00:00", "meta": {"OBJECT_NAME": "STARLINK-35533", "OBJECT_ID": "2025-259H", "EPOCH": "2025-12-04T14:00:01.000224", "MEAN_MOTION": 15.50733687, "ECCENTRICITY": 0.00014843, "INCLINATION": 43.0004, "RA_OF_ASC_NODE": 95.0158, "ARG_OF_PERICENTER": 281.7539, "MEAN_ANOMALY": 125.1337, "EPHEMERIS_TYPE": 0, "CLASSIFICATION_TYPE": "U", "NORAD_CAT_ID": 66429, "ELEMENT_SET_NO": 999, "REV_AT_EPOCH": 496, "BSTAR": -0.0092967913, "MEAN_MOTION_DOT": -0.00514217, "MEAN_MOTION_DDOT": 0}, "tle": {"line1": "1 66429U 25259H   25338.58334491 -.00514217  00000+0 -92968-2 0  9995", "line2": "2 66429  43.0004  95.0158 0001484 281.7539 125.1337 15.50733687  4966"}}, "geometry": {"type": "Point", "coordinates": [106.12538286191969, 11.807031736137098]}}, {"type": "Feature", "properties": {"norad_id": 66430, "name": "STARLINK-35470", "group": "last-30-days", "lat": 13.082360511632388, "lon": 107.59921898516124, "alt_km": 413.635784184783, "timestamp": "2025-12-04T21:36:14.651524+00:00", "meta": {"OBJECT_NAME": "STARLINK-35470", "OBJECT_ID": "2025-259J", "EPOCH": "2025-12-04T14:00:01.000224", "MEAN_MOTION": 15.50536076, "ECCENTRICITY": 0.00016097, "INCLINATION": 43.0004, "RA_OF_ASC_NODE": 95.0122, "ARG_OF_PERICENTER": 254.1928, "MEAN_ANOMALY": 154.6429, "EPHEMERIS_TYPE": 0, "CLASSIFICATION_TYPE": "U", "NORAD_CAT_ID": 66430, "ELEMENT_SET_NO": 999, "REV_AT_EPOCH": 496, "BSTAR": 0.00032249256, "MEAN_MOTION_DOT": 0.00018593, "MEAN_MOTION_DDOT": 0}, "tle": {"line1": "1 66430U 25259J   25338.58334491  .00018593  00000+0  32249-3 0  9998", "line2": "2 66430  43.0004  95.0122 0001609 254.1928 154.6429 15.50536076  4966"}}, "geometry": {"type": "Point", "coordinates": [107.59921898516124, 13.082360511632388]}}, {"type": "Feature", "properties": {"norad_id": 66431, "name": "STARLINK-35439", "group": "last-30-days", "lat": 14.356705811119891, "lon": 109.09515322354099, "alt_km": 413.33744595315784, "timestamp": "2025-12-04T21:36:14.651534+00:00", "meta": {"OBJECT_NAME": "STARLINK-35439", "OBJECT_ID": "2025-259K", "EPOCH": "2025-12-04T14:00:01.000224", "MEAN_MOTION": 15.50599009, "ECCENTRICITY": 0.00016524, "INCLINATION": 43.0003, "RA_OF_ASC_NODE": 95.0065, "ARG_OF_PERICENTER": 269.4739, "MEAN_ANOMALY": 141.2794, "EPHEMERIS_TYPE": 0, "CLASSIFICATION_TYPE": "U", "NORAD_CAT_ID": 66431, "ELEMENT_SET_NO": 999, "REV_AT_EPOCH": 496, "BSTAR": -0.0023294172, "MEAN_MOTION_DOT": -0.00134771, "MEAN_MOTION_DDOT": 0}, "tle": {"line1": "1 66431U 25259K   25338.58334491 -.00134771  00000+0 -23294-2 0  9997", "line2": "2 66431  43.0003  95.0065 0001652 269.4739 141.2794 15.50599009  4961"}}, "geometry": {"type": "Point", "coordinates": [109.09515322354099, 14.356705811119891]}}, {"type": "Feature", "properties": {"norad_id": 66432, "name": "STARLINK-35446", "group": "last-30-days", "lat": 15.593704193697294, "lon": 110.5742565932614, "alt_km": 412.82767871996657, "timestamp": "2025-12-04T21:36:14.651546+00:00", "meta": {"OBJECT_NAME": "STARLINK-35446", "OBJECT_ID": "2025-259L", "EPOCH": "2025-12-04T14:00:01.000224", "MEAN_MOTION": 15.50570427, "ECCENTRICITY": 0.00014056, "INCLINATION": 43.0004, "RA_OF_ASC_NODE": 95.0006, "ARG_OF_PERICENTER": 282.3932, "MEAN_ANOMALY": 130.2562, "EPHEMERIS_TYPE": 0, "CLASSIFICATION_TYPE": "U", "NORAD_CAT_ID": 66432, "ELEMENT_SET_NO": 999, "REV_AT_EPOCH": 496, "BSTAR": -0.00084234423, "MEAN_MOTION_DOT": -0.00049431, "MEAN_MOTION_DDOT": 0}, "tle": {"line1": "1 66432U 25259L   25338.58334491 -.00049431  00000+0 -84234-3 0  9998", "line2": "2 66432  43.0004  95.0006 0001405 282.3932 130.2562 15.50570427  4967"}}, "geometry": {"type": "Point", "coordinates": [110.5742565932614, 15.593704193697294]}}, {"type": "Feature", "properties": {"norad_id": 66433, "name": "STARLINK-35457", "group": "last-30-days", "lat": 16.83956555071133, "lon": 112.09770999801175, "alt_km": 413.08284506740347, "timestamp": "2025-12-04T21:36:14.651559+00:00", "meta": {"OBJECT_NAME": "STARLINK-35457", "OBJECT_ID": "2025-259M", "EPOCH": "2025-12-04T14:00:01.000224", "MEAN_MOTION": 15.50552504, "ECCENTRICITY": 0.00014923, "INCLINATION": 43.0003, "RA_OF_ASC_NODE": 94.9975, "ARG_OF_PERICENTER": 258.7466, "MEAN_ANOMALY": 155.8415, "EPHEMERIS_TYPE": 0, "CLASSIFICATION_TYPE": "U", "NORAD_CAT_ID": 66433, "ELEMENT_SET_NO": 999, "REV_AT_EPOCH": 496, "BSTAR": -0.00056111166, "MEAN_MOTION_DOT": -0.00033089, "MEAN_MOTION_DDOT": 0}, "tle": {"line1": "1 66433U 25259M   25338.58334491 -.00033089  00000+0 -56111-3 0  9994", "line2": "2 66433  43.0003  94.9975 0001492 258.7466 155.8415 15.50552504  4961"}}, "geometry": {"type": "Point", "coordinates": [112.09770999801175, 16.83956555071133]}}, {"type": "Feature", "properties": {"norad_id": 66434, "name": "STARLINK-35389", "group": "last-30-days", "lat": 18.07036450292479, "lon": 113.63498455293266, "alt_km": 412.82118837474354, "timestamp": "2025-12-04T21:36:14.651569+00:00", "meta": {"OBJECT_NAME": "STARLINK-35389", "OBJECT_ID": "2025-259N", "EPOCH": "2025-12-04T14:00:01.000224", "MEAN_MOTION": 15.50555774, "ECCENTRICITY": 0.00013434, "INCLINATION": 43.0003, "RA_OF_ASC_NODE": 94.9928, "ARG_OF_PERICENTER": 261.542, "MEAN_ANOMALY": 154.962, "EPHEMERIS_TYPE": 0, "CLASSIFICATION_TYPE": "U", "NORAD_CAT_ID": 66434, "ELEMENT_SET_NO": 999, "REV_AT_EPOCH": 496, "BSTAR": -0.00064685874, "MEAN_MOTION_DOT": -0.00038074, "MEAN_MOTION_DDOT": 0}, "tle": {"line1": "1 66434U 25259N   25338.58334491 -.00038074  00000+0 -64686-3 0  9990", "line2": "2 66434  43.0003  94.9928 0001343 261.5420 154.9620 15.50555774  4967"}}, "geometry": {"type": "Point", "coordinates": [113.63498455293266, 18.07036450292479]}}, {"type": "Feature", "properties": {"norad_id": 66435, "name": "STARLINK-35502", "group": "last-30-days", "lat": 19.290785805890977, "lon": 115.19724677031381, "alt_km": 412.7113740045261, "timestamp": "2025-12-04T21:36:14.651579+00:00", "meta": {"OBJECT_NAME": "STARLINK-35502", "OBJECT_ID": "2025-259P", "EPOCH": "2025-12-04T14:00:01.000224", "MEAN_MOTION": 15.50569194, "ECCENTRICITY": 0.00015195, "INCLINATION": 43.0003, "RA_OF_ASC_NODE": 94.9888, "ARG_OF_PERICENTER": 262.9873, "MEAN_ANOMALY": 155.4286, "EPHEMERIS_TYPE": 0, "CLASSIFICATION_TYPE": "U", "NORAD_CAT_ID": 66435, "ELEMENT_SET_NO": 999, "REV_AT_EPOCH": 496, "BSTAR": -0.0010798035, "MEAN_MOTION_DOT": -0.00063158, "MEAN_MOTION_DDOT": 0}, "tle": {"line1": "1 66435U 25259P   25338.58334491 -.00063158  00000+0 -10798-2 0  9996", "line2": "2 66435  43.0003  94.9888 0001519 262.9873 155.4286 15.50569194  4960"}}, "geometry": {"type": "Point", "coordinates": [115.19724677031381, 19.290785805890977]}}]}